HULIANWANG DIGUI-60     
1 65166U 25174C   26061.98523480  .00000057  00000+0  98261-4 0  9998
2 65166  86.4924 287.8969 0001196  86.5233 273.6038 13.24421237 26738
HULIANWANG DIGUI-61     
1 65167U 25174D   26061.91729619  .00000049  00000+0  79651-4 0  9997
2 65167  86.4932 287.9423 0001150  85.0457 275.0808 13.24419760 26724
HULIANWANG DIGUI-62     
1 65168U 25174E   26061.92480701  .00000057  00000+0  97770-4 0  9996
2 65168  86.4874 287.8304 0001148  87.7829 272.3436 13.24421090 26722
HULIANWANG DIGUI-63     
1 65169U 25174F   26061.93234760  .00000061  00000+0  10861-3 0  9990
2 65169  86.4926 287.9361 0001173  85.4834 274.6435 13.24421440 26727
HULIANWANG DIGUI-64     
1 65170U 25174G   26061.93990458  .00000068  00000+0  12341-3 0  9997
2 65170  86.4885 287.8599 0001156  87.8281 272.2986 13.24421438 26720
HULIANWANG DIGUI-65     
1 65171U 25174H   26061.95497002  .00000093  00000+0  18274-3 0  9996
2 65171  86.4849 287.7949 0001202  85.7201 274.4070 13.24422037 26724
HULIANWANG DIGUI-66     
1 65172U 25174J   26061.94743951  .00000080  00000+0  15210-3 0  9996
2 65172  86.4884 287.8628 0001238  88.0989 272.0287 13.24421629 26727
HULIANWANG DIGUI-67     
1 65173U 25174K   26061.96257965  .00000086  00000+0  16661-3 0  9991
2 65173  86.4896 287.8910 0001234  86.4412 273.6863 13.24421301 26694
HULIANWANG DIGUI-68     
1 65228U 25178A   26061.98510823  .00000067  00000+0  12267-3 0  9990
2 65228  86.4936  49.3599 0002043  81.1456 278.9909 13.24423735 26257
HULIANWANG DIGUI-69     
1 65229U 25178B   26061.97785305  .00000050  00000+0  81862-4 0  9999
2 65229  86.4955  49.3969 0001972  82.3005 277.8353 13.24417497 26252
HULIANWANG DIGUI-70     
1 65230U 25178C   26061.97025620  .00000044  00000+0  68639-4 0  9998
2 65230  86.4894  49.2696 0002077  81.3504 278.7866 13.24418443 26253
HULIANWANG DIGUI-71     
1 65231U 25178D   26061.96267783  .00000023  00000+0  18712-4 0  9990
2 65231  86.4953  49.3851 0002013  82.1271 278.0092 13.24419341 26256
HULIANWANG DIGUI-72     
1 65232U 25178E   26061.95508135  .00000024  00000+0  22756-4 0  9993
2 65232  86.4936  49.3461 0002009  83.1714 276.9648 13.24419881 26256
HULIANWANG DIGUI-73     
1 65305U 25187A   26061.90867918 -.00000096  00000+0  59666-4 0  9996
2 65305  50.0036 227.0407 0001055 129.4243 230.6723 13.29342272 25569
HULIANWANG DIGUI-74     
1 65306U 25187B   26061.89195491 -.00000090  00000+0  74073-4 0  9998
2 65306  50.0078 227.0192 0001054 130.4379 229.6586 13.29342789 25566
HULIANWANG DIGUI-75     
1 65307U 25187C   26061.95048701 -.00000093  00000+0  67774-4 0  9990
2 65307  50.0071 226.6513 0001049 129.5543 230.5422 13.29341872 25571
HULIANWANG DIGUI-76     
1 65308U 25187D   26061.93396610 -.00000096  00000+0  59762-4 0  9995
2 65308  49.9995 227.1056 0001041 127.1817 232.9150 13.29339202 25569
HULIANWANG DIGUI-77     
1 65309U 25187E   26061.92546859 -.00000095  00000+0  63546-4 0  9991
2 65309  50.0030 227.1148 0001078 127.7077 232.3893 13.29341105 25562
HULIANWANG DIGUI-78     
1 65310U 25187F   26061.95887877 -.00000094  00000+0  64070-4 0  9996
2 65310  50.0095 226.7324 0001032 130.3835 229.7128 13.29341519 25579
HULIANWANG DIGUI-79     
1 65311U 25187G   26061.94202161 -.00000100  00000+0  52127-4 0  9991
2 65311  50.0024 227.1929 0001049 128.0122 232.0845 13.29343019 25568
HULIANWANG DIGUI-80     
1 65312U 25187H   26061.91708540 -.00000100  00000+0  51713-4 0  9991
2 65312  50.0015 227.0499 0001068 127.5733 232.5237 13.29341084 25563
HULIANWANG DIGUI-81     
1 65313U 25187J   26061.90041698 -.00000087  00000+0  79298-4 0  9997
2 65313  50.0054 227.0264 0001070 128.5724 231.5244 13.29341200 25579
HULIANWANG DIGUI-82     
1 65817U 25220A   26061.94373181  .00000059  00000+0  10245-3 0  9997
2 65817  86.4897  79.7461 0002226 102.5931 257.5452 13.24421743 20854
HULIANWANG DIGUI-83     
1 65818U 25220B   26061.93622500  .00000062  00000+0  10968-3 0  9995
2 65818  86.4919  79.7784 0002220 102.5167 257.6216 13.24420896 20850
HULIANWANG DIGUI-84     
1 65819U 25220C   26061.92864408  .00000074  00000+0  13873-3 0  9991
2 65819  86.4857  79.6734 0002217 101.5551 258.5832 13.24421332 20858
HULIANWANG DIGUI-85     
1 65820U 25220D   26061.99659174  .00000081  00000+0  15463-3 0  9997
2 65820  86.4917  79.7431 0002210 102.6547 257.4834 13.24421844 20861
HULIANWANG DIGUI-86     
1 65821U 25220E   26061.98912286  .00000081  00000+0  15449-3 0  9997
2 65821  86.4896  79.7048 0002205 102.6153 257.5228 13.24420692 20867
HULIANWANG DIGUI-87     
1 65995U 25231A   26061.93679490 -.00000109  00000+0  31889-4 0  9992
2 65995  49.9988 196.9444 0000605 173.5864 186.5016 13.29330170 18752
HULIANWANG DIGUI-88     
1 65996U 25231B   26061.86998998 -.00000105  00000+0  40275-4 0  9997
2 65996  49.9975 197.2441 0000618 178.7007 181.3867 13.29329183 18748
HULIANWANG DIGUI-89     
1 65997U 25231C   26061.92843906 -.00000110  00000+0  30668-4 0  9994
2 65997  49.9953 196.8620 0000637 180.3010 179.7862 13.29329830 18759
HULIANWANG DIGUI-90     
1 65998U 25231D   26061.61936832 -.00000116  00000+0  18197-4 0  9991
2 65998  49.9982 197.9300 0000609 177.9179 182.1696 13.29329992 18714
HULIANWANG DIGUI-91     
1 65999U 25231E   26061.91173325 -.00000117  00000+0  14977-4 0  9998
2 65999  50.0001 196.8318 0000625 178.7542 181.3332 13.29329870 18755
HULIANWANG DIGUI-92     
1 66000U 25231F   26061.90337011 -.00000105  00000+0  40206-4 0  9996
2 66000  50.0042 196.8328 0000623 179.0170 181.0704 13.29330399 18752
HULIANWANG DIGUI-93     
1 66001U 25231G   26061.88669635 -.00000105  00000+0  40338-4 0  9990
2 66001  50.0009 196.7135 0000608 177.8467 182.2408 13.29329450 18759
HULIANWANG DIGUI-94     
1 66002U 25231H   26061.89501905 -.00000106  00000+0  39581-4 0  9996
2 66002  50.0048 196.8007 0000625 178.7957 181.2917 13.29330602 18750
HULIANWANG DIGUI-95     
1 66003U 25231J   26061.87847980 -.00000105  00000+0  40976-4 0  9990
2 66003  50.0021 196.6847 0000626 175.2230 184.8648 13.29325570 18757
HULIANWANG DIGUI-96     
1 66412U 25258A   26061.90197242 -.00000049  00000+0  16178-3 0  9999
2 66412  50.0054 316.8343 0000362  89.0533 271.0381 13.29331144 15595
HULIANWANG DIGUI-97     
1 66413U 25258B   26061.93537305 -.00000056  00000+0  14662-3 0  9995
2 66413  50.0021 316.9735 0000378  90.9266 269.1650 13.29332038 15597
HULIANWANG DIGUI-98     
1 66414U 25258C   26061.92699606 -.00000050  00000+0  15889-3 0  9994
2 66414  50.0058 316.9712 0000428 104.3419 255.7501 13.29333605 15596
HULIANWANG DIGUI-99     
1 66415U 25258D   26061.89360558 -.00000053  00000+0  15278-3 0  9997
2 66415  50.0056 316.7919 0000306  82.3606 277.7301 13.29331165 15580
HULIANWANG DIGUI-100    
1 66416U 25258E   26061.91864866 -.00000045  00000+0  17091-3 0  9998
2 66416  50.0060 316.9301 0000288  79.1186 280.9719 13.29334134 15600
HULIANWANG DIGUI-101    
1 66417U 25258F   26061.91030596 -.00000049  00000+0  16135-3 0  9996
2 66417  50.0010 316.8291 0000317  74.3284 285.7623 13.29332303 15605
HULIANWANG DIGUI-102    
1 66418U 25258G   26061.96039766 -.00000059  00000+0  13931-3 0  9992
2 66418  50.0024 316.4395 0000329  97.6786 262.4124 13.29334291 15606
HULIANWANG DIGUI-103    
1 66419U 25258H   26061.95206317 -.00000058  00000+0  14337-3 0  9990
2 66419  50.0017 316.3883 0000261  75.0892 285.0009 13.29333318 15605
HULIANWANG DIGUI-104    
1 66420U 25258J   26061.94372315 -.00000057  00000+0  14367-3 0  9995
2 66420  50.0034 316.3672 0000358 101.6707 258.4206 13.29332704 15599
HULIANWANG DIGUI-105    
1 66915U 25285A   26061.72208454 -.00000078  00000+0  99751-4 0  9996
2 66915  50.0042 168.0525 0000036 307.6487  52.4382 13.29331639 11894
HULIANWANG DIGUI-106    
1 66916U 25285B   26061.78897486 -.00606226  00000+0 -13603+1 0  9998
2 66916  50.0038 167.7521 0006396  24.0977 336.0193 13.29372523 11901
HULIANWANG DIGUI-107    
1 66917U 25285C   26061.85574067 -.00000084  00000+0  85231-4 0  9993
2 66917  50.0021 167.4092 0000021  14.9046 345.1827 13.29331064 11919
HULIANWANG DIGUI-108    
1 66918U 25285D   26061.69702149 -.00000107  00000+0  37556-4 0  9993
2 66918  50.0041 167.9214 0000029 359.8729   0.2143 13.29331960 11892
HULIANWANG DIGUI-109    
1 66919U 25285E   26061.83902638 -.00000083  00000+0  88115-4 0  9995
2 66919  50.0066 167.3581 0000037 320.5600  39.5270 13.29332359 11926
HULIANWANG DIGUI-110    
1 66920U 25285F   26061.83067760 -.00000069  00000+0  11949-3 0  9999
2 66920  50.0103 167.3396 0000096 351.3290   8.7581 13.29331614 11911
HULIANWANG DIGUI-111    
1 66921U 25285G   26061.82232236 -.00000084  00000+0  85462-4 0  9990
2 66921  50.0114 167.3093 0000053 340.0069  20.0801 13.29331658 11910
HULIANWANG DIGUI-112    
1 66922U 25285H   26061.81397091 -.00000079  00000+0  96089-4 0  9992
2 66922  50.0077 167.2389 0000076 308.5327  51.5538 13.29333601 11913
HULIANWANG DIGUI-113    
1 66923U 25285J   26061.73043602 -.00000205  00000+0 -17433-3 0  9997
2 66923  50.0096 167.4725 0000041 333.6381  26.4489 13.29331783 11906
HULIANWANG DIGUI-114    
1 66953U 25287A   26061.92128109  .00000049  00000+0  81067-4 0  9998
2 66953  86.4979 318.2956 0001974  81.5790 278.5568 13.24415443 11272
HULIANWANG DIGUI-115    
1 66954U 25287B   26061.91370920  .00000063  00000+0  11380-3 0  9994
2 66954  86.4995 318.3068 0002061  81.2394 278.8974 13.24415547 11270
HULIANWANG DIGUI-116    
1 66955U 25287C   26061.90616270  .00000072  00000+0  13293-3 0  9990
2 66955  86.4934 318.2474 0002051  81.0406 279.0960 13.24415618 11272
HULIANWANG DIGUI-117    
1 66956U 25287D   26061.89864453  .00000080  00000+0  15285-3 0  9999
2 66956  86.4995 318.3002 0001428  23.8489 336.2711 13.24413716 11277
HULIANWANG DIGUI-118    
1 66957U 25287E   26061.89107575  .00000099  00000+0  19739-3 0  9993
2 66957  86.4971 318.2746 0002041  81.0237 279.1128 13.24414990 11277
